OBJECT_NAME,OBJECT_ID,EPOCH,MEAN_MOTION,ECCENTRICITY,INCLINATION,RA_OF_ASC_NODE,ARG_OF_PERICENTER,MEAN_ANOMALY,EPHEMERIS_TYPE,CLASSIFICATION_TYPE,NORAD_CAT_ID,ELEMENT_SET_NO,REV_AT_EPOCH,BSTAR,MEAN_MOTION_DOT,MEAN_MOTION_DDOT
CONNECTA IOT-1,2024-149E,2026-05-19T04:40:36.602112,15.23291964,.0002866,97.3761,215.9805,55.1255,305.0251,0,U,60472,999,9738,.1085E-3,.2503E-4,0
LOPEN,2024-149F,2026-05-19T04:49:27.956064,15.38776097,.0001729,97.3778,222.3625,59.7190,300.4226,0,U,60473,999,9780,.23435E-3,.8901E-4,0
ROCK,2024-149G,2026-05-19T04:30:06.139584,15.38779491,.0001718,97.3775,222.3662,47.7313,312.4078,0,U,60474,999,9780,.24705E-3,.9389E-4,0
CONNECTA IOT-3,2024-149H,2026-05-19T03:37:07.182912,15.23302540,.000348,97.3736,215.6988,37.3745,322.7733,0,U,60475,999,9738,.11061E-3,.2554E-4,0
QUBE,2024-149J,2026-05-19T04:27:03.691296,15.45755821,.0001159,97.3776,225.0924,27.0783,333.0527,0,U,60476,999,9798,.30417E-3,.14632E-3,0
WREN-1,2024-149L,2026-05-19T04:07:53.448960,15.40331703,.0004024,97.3765,223.0074,27.9466,332.1995,0,U,60478,999,9785,.3179E-3,.12747E-3,0
TOMORROW-S1,2024-149M,2026-05-19T05:03:14.542272,15.32272844,.0002571,97.3750,219.7839,29.4791,330.6595,0,U,60479,999,9765,.143E-3,.4377E-4,0
FLOCK 4BE-18,2024-149N,2026-05-19T04:35:22.908768,15.40851616,.000323,97.3730,222.6401,26.2339,333.9070,0,U,60480,999,9784,.26572E-3,.10822E-3,0
FLOCK 4BE-7,2024-149P,2026-05-19T04:00:45.425952,15.39031439,.0002611,97.3759,222.0175,38.5176,321.6256,0,U,60481,999,9778,.37096E-3,.14267E-3,0
TOMORROW-S2,2024-149T,2026-05-19T04:13:46.698816,15.32286882,.0003445,97.3818,220.2112,46.4979,313.6549,0,U,60485,999,9764,.15033E-3,.4608E-4,0
FLOCK 4BE-36,2024-149U,2026-05-19T04:18:09.895680,15.41739140,.0003633,97.3743,223.2821,39.2376,320.9134,0,U,60486,999,9788,.24443E-3,.10246E-3,0
FLOCK 4BE-25,2024-149V,2026-05-19T05:00:00.429120,15.38010871,.0002235,97.3798,222.1802,48.3577,311.7859,0,U,60487,999,9778,.21657E-3,.8016E-4,0
FLOCK 4BE-31,2024-149W,2026-05-19T04:03:17.390592,15.42891788,.0002734,97.3798,224.0519,51.2498,308.8993,0,U,60488,999,9790,.29194E-3,.12738E-3,0
FLOCK 4BE-20,2024-149X,2026-05-19T05:19:58.467072,15.37233224,.0003642,97.3698,221.1471,36.7727,323.3767,0,U,60489,999,9776,.23792E-3,.8596E-4,0
FLOCK 4BE-23,2024-149Y,2026-05-19T04:55:56.892576,15.36872053,.0003633,97.3781,221.4902,45.4886,314.6654,0,U,60490,999,9774,.22418E-3,.8E-4,0
FLOCK 4BE-15,2024-149Z,2026-05-19T03:52:08.179392,15.53223401,.0003072,97.3697,223.5904,135.3828,224.7673,0,U,60491,999,9791,.12262E-2,.77622E-3,0
FLOCK 4BE-17,2024-149AA,2026-05-19T05:28:38.004096,15.38863456,.0002826,97.3773,222.3892,37.4228,322.7213,0,U,60492,999,9780,.26692E-3,.10181E-3,0
NUSAT-50 (NANCY ROMAN),2024-149AB,2026-05-19T04:30:01.759104,15.29303233,.0001889,97.3788,220.6575,318.2927,41.8169,0,U,60493,999,9769,.20071E-3,.563E-4,0
FLOCK 4BE-22,2024-149AC,2026-05-19T04:05:22.515936,15.40218049,.000363,97.3731,222.4781,40.9787,319.1732,0,U,60494,999,9783,.25986E-3,.10362E-3,0
FLOCK 4BE-34,2024-149AD,2026-05-19T04:30:26.014176,15.40249324,.000401,97.3781,223.2989,50.8242,309.3359,0,U,60495,999,9786,.24199E-3,.9653E-4,0
TYCHE,2024-149AE,2026-05-19T03:36:11.223360,15.25813335,.0003154,97.3756,217.3556,51.6295,308.5227,0,U,60496,999,9747,.12163E-3,.3038E-4,0
FLOCK 4BE-32,2024-149AF,2026-05-19T04:10:04.763136,15.41079724,.000381,97.3721,222.8113,47.1349,313.0217,0,U,60497,999,9786,.2885E-3,.11848E-3,0
NUSAT-48 (HENRIETTA LEAVITT),2024-149AG,2026-05-19T02:50:47.205888,15.29919766,.0004429,97.3907,220.7656,39.9563,320.2003,0,U,60498,999,9769,.22406E-3,.6416E-4,0
FLOCK 4BE-30,2024-149AH,2026-05-19T04:40:48.393984,15.49534828,.0002003,97.3784,223.8996,166.8806,193.2497,0,U,60499,999,9727,.11725E-2,.64989E-3,0
NUSAT-49 (KLARA DAN VON NEUMANN),2024-149AJ,2026-05-19T03:54:23.499072,15.29964216,.0003378,97.3778,220.6483,71.5147,288.6460,0,U,60500,999,9769,.20086E-3,.5751E-4,0
FLOCK 4BE-11,2024-149AK,2026-05-19T02:51:32.351616,15.41934869,.0003887,97.3701,222.9577,44.2403,315.9154,0,U,60501,999,9787,.28143E-3,.1189E-3,0
YAM-7,2024-149AN,2026-05-19T04:19:04.573056,15.31376259,.0004494,97.3784,219.5567,57.6823,302.4854,0,U,60504,999,9761,.14992E-3,.4466E-4,0
FLOCK 4BE-24,2024-149AP,2026-05-19T04:06:15.768576,15.41896040,.0004043,97.3716,223.2584,52.8313,307.3303,0,U,60505,999,9789,.30287E-3,.12787E-3,0
LUR-1,2024-149AQ,2026-05-19T04:52:55.113888,15.29686392,.0005315,97.3741,218.2503,62.3371,297.8409,0,U,60506,999,9754,.1503E-3,.4248E-4,0
