CONNECTA IOT-1          
1 60472U 24149E   26139.19486808  .00002503  00000+0  10850-3 0  9990
2 60472  97.3761 215.9805 0002866  55.1255 305.0251 15.23291964 97384
LOPEN                   
1 60473U 24149F   26139.20101801  .00008901  00000+0  23435-3 0  9991
2 60473  97.3778 222.3625 0001729  59.7190 300.4226 15.38776097 97809
ROCK                    
1 60474U 24149G   26139.18757106  .00009389  00000+0  24705-3 0  9996
2 60474  97.3775 222.3662 0001718  47.7313 312.4078 15.38779491 97809
CONNECTA IOT-3          
1 60475U 24149H   26139.15077758  .00002554  00000+0  11061-3 0  9990
2 60475  97.3736 215.6988 0003480  37.3745 322.7733 15.23302540 97381
QUBE                    
1 60476U 24149J   26139.18545939  .00014632  00000+0  30417-3 0  9991
2 60476  97.3776 225.0924 0001159  27.0783 333.0527 15.45755821 97980
WREN-1                  
1 60478U 24149L   26139.17214640  .00012747  00000+0  31790-3 0  9994
2 60478  97.3765 223.0074 0004024  27.9466 332.1995 15.40331703 97854
TOMORROW-S1             
1 60479U 24149M   26139.21058498  .00004377  00000+0  14300-3 0  9995
2 60479  97.3750 219.7839 0002571  29.4791 330.6595 15.32272844 97651
FLOCK 4BE-18            
1 60480U 24149N   26139.19123737  .00010822  00000+0  26572-3 0  9999
2 60480  97.3730 222.6401 0003230  26.2339 333.9070 15.40851616 97849
FLOCK 4BE-7             
1 60481U 24149P   26139.16719243  .00014267  00000+0  37096-3 0  9990
2 60481  97.3759 222.0175 0002611  38.5176 321.6256 15.39031439 97784
TOMORROW-S2             
1 60485U 24149T   26139.17623494  .00004608  00000+0  15033-3 0  9992
2 60485  97.3818 220.2112 0003445  46.4979 313.6549 15.32286882 97648
FLOCK 4BE-36            
1 60486U 24149U   26139.17928120  .00010246  00000+0  24443-3 0  9997
2 60486  97.3743 223.2821 0003633  39.2376 320.9134 15.41739140 97883
FLOCK 4BE-25            
1 60487U 24149V   26139.20833830  .00008016  00000+0  21657-3 0  9991
2 60487  97.3798 222.1802 0002235  48.3577 311.7859 15.38010871 97782
FLOCK 4BE-31            
1 60488U 24149W   26139.16895128  .00012738  00000+0  29194-3 0  9995
2 60488  97.3798 224.0519 0002734  51.2498 308.8993 15.42891788 97907
FLOCK 4BE-20            
1 60489U 24149X   26139.22220448  .00008596  00000+0  23792-3 0  9995
2 60489  97.3698 221.1471 0003642  36.7727 323.3767 15.37233224 97768
FLOCK 4BE-23            
1 60490U 24149Y   26139.20551959  .00008000  00000+0  22418-3 0  9993
2 60490  97.3781 221.4902 0003633  45.4886 314.6654 15.36872053 97742
FLOCK 4BE-15            
1 60491U 24149Z   26139.16120578  .00077622  00000+0  12262-2 0  9999
2 60491  97.3697 223.5904 0003072 135.3828 224.7673 15.53223401 97913
FLOCK 4BE-17            
1 60492U 24149AA  26139.22821764  .00010181  00000+0  26692-3 0  9992
2 60492  97.3773 222.3892 0002826  37.4228 322.7213 15.38863456 97804
NUSAT-50 (NANCY ROMAN)  
1 60493U 24149AB  26139.18752036  .00005630  00000+0  20071-3 0  9991
2 60493  97.3788 220.6575 0001889 318.2927  41.8169 15.29303233 97692
FLOCK 4BE-22            
1 60494U 24149AC  26139.17039949  .00010362  00000+0  25986-3 0  9990
2 60494  97.3731 222.4781 0003630  40.9787 319.1732 15.40218049 97835
FLOCK 4BE-34            
1 60495U 24149AD  26139.18780109  .00009653  00000+0  24199-3 0  9999
2 60495  97.3781 223.2989 0004010  50.8242 309.3359 15.40249324 97868
TYCHE                   
1 60496U 24149AE  26139.15012990  .00003038  00000+0  12163-3 0  9992
2 60496  97.3756 217.3556 0003154  51.6295 308.5227 15.25813335 97474
FLOCK 4BE-32            
1 60497U 24149AF  26139.17366624  .00011848  00000+0  28850-3 0  9999
2 60497  97.3721 222.8113 0003810  47.1349 313.0217 15.41079724 97863
NUSAT-48 (HENRIETTA LE*)
1 60498U 24149AG  26139.11860192  .00006416  00000+0  22406-3 0  9999
2 60498  97.3907 220.7656 0004429  39.9563 320.2003 15.29919766 97692
FLOCK 4BE-30            
1 60499U 24149AH  26139.19500456  .00064989  00000+0  11725-2 0  9992
2 60499  97.3784 223.8996 0002003 166.8806 193.2497 15.49534828 97276
NUSAT-49 (KLARA DAN VO*)
1 60500U 24149AJ  26139.16277198  .00005751  00000+0  20086-3 0  9999
2 60500  97.3778 220.6483 0003378  71.5147 288.6460 15.29964216 97695
FLOCK 4BE-11            
1 60501U 24149AK  26139.11912444  .00011890  00000+0  28143-3 0  9998
2 60501  97.3701 222.9577 0003887  44.2403 315.9154 15.41934869 97877
YAM-7                   
1 60504U 24149AN  26139.17991404  .00004466  00000+0  14992-3 0  9998
2 60504  97.3784 219.5567 0004494  57.6823 302.4854 15.31376259 97613
FLOCK 4BE-24            
1 60505U 24149AP  26139.17101584  .00012787  00000+0  30287-3 0  9991
2 60505  97.3716 223.2584 0004043  52.8313 307.3303 15.41896040 97890
LUR-1                   
1 60506U 24149AQ  26139.20341567  .00004248  00000+0  15030-3 0  9995
2 60506  97.3741 218.2503 0005315  62.3371 297.8409 15.29686392 97542
